[{"OBJECT_NAME":"UTMN 2 (RS27S)","OBJECT_ID":"2023-091AP","EPOCH":"2026-03-09T23:09:07.917408","MEAN_MOTION":15.29495965,"ECCENTRICITY":0.00097379,"INCLINATION":97.5194,"RA_OF_ASC_NODE":134.949,"ARG_OF_PERICENTER":76.0788,"MEAN_ANOMALY":284.1534,"EPHEMERIS_TYPE":0,"CLASSIFICATION_TYPE":"U","NORAD_CAT_ID":57203,"ELEMENT_SET_NO":999,"REV_AT_EPOCH":14936,"BSTAR":0.00056135701,"MEAN_MOTION_DOT":0.00016013,"MEAN_MOTION_DDOT":0},{"OBJECT_NAME":"STARLINK-34136","OBJECT_ID":"2025-110S","EPOCH":"2026-03-09T07:18:32.220576","MEAN_MOTION":15.30195627,"ECCENTRICITY":0.00011703,"INCLINATION":53.1606,"RA_OF_ASC_NODE":28.5391,"ARG_OF_PERICENTER":86.0249,"MEAN_ANOMALY":274.0885,"EPHEMERIS_TYPE":0,"CLASSIFICATION_TYPE":"U","NORAD_CAT_ID":64112,"ELEMENT_SET_NO":999,"REV_AT_EPOCH":4582,"BSTAR":0.00074093777,"MEAN_MOTION_DOT":0.00021646,"MEAN_MOTION_DDOT":0}]
